NUSAT-1 (FRESCO)        
1 41557U 16033B   22361.31061670  .00021880  00000+0  53012-3 0  9995
2 41557  97.3900 100.1020 0010337  50.8259  27.1456 15.41046049367015
BEESAT-4                
1 41619U 16040W   22361.07096491  .00029539  00000+0  78789-3 0  9991
2 41619  97.1901  47.0457 0008678 135.6349 224.5594 15.38058170350251
CAS-2T & KS-1Q          
1 41847U 16066G   22360.42445002  .00000797  00000+0  12904-3 0  9998
2 41847  98.5287  64.6940 0362296 355.5705   4.2302 14.38975471321952
NAYIF-1 (EO-88)         
1 42017U 17008BX  22360.16308803  .00029352  00000+0  66440-3 0  9995
2 42017  97.2444  64.1777 0002620 281.6531  78.4423 15.43083548326543
ZHUHAI-1 02 (CAS-4B)    
1 42759U 17034B   22361.06640838  .00005788  00000+0  32807-3 0  9991
2 42759  43.0182 349.8090 0009414  62.4265  46.4964 15.13672941305520
ZHUHAI-1 01 (CAS-4A)    
1 42761U 17034D   22361.22382818  .00006218  00000+0  35047-3 0  9991
2 42761  43.0178 347.5839 0009502  66.1937  47.7881 15.13778743305551
MAX VALIER SAT          
1 42778U 17036P   22360.84294521  .00015620  00000+0  52438-3 0  9991
2 42778  97.1816  35.5064 0010115  11.3953 348.7516 15.30897338306296
RADFXSAT (FOX-1B)       
1 43017U 17073E   22360.64777074  .00006187  00000+0  45761-3 0  9995
2 43017  97.6521 246.9034 0241491 277.7284  79.6573 14.83105690275584
FOX-1D (AO-92)          
1 43137U 18004AC  22360.98907208  .00018060  00000+0  54766-3 0  9992
2 43137  97.3505  74.7575 0007984  45.7874 314.4023 15.34147984275802
DIWATA-2B               
1 43678U 18084H   22361.08354640  .00001532  00000+0  15457-3 0  9998
2 43678  97.9956 136.9854 0010110  18.6654 341.4924 14.92585052226585
ES'HAIL 2               
1 43700U 18090A   22361.03035615  .00000147  00000+0  00000+0 0  9999
2 43700   0.0140 310.3130 0001322   9.7967 172.1056  1.00270438 15203
FOX-1CLIFF (AO-95)      
1 43770U 18099N   22360.63864473  .00003137  00000+0  27331-3 0  9994
2 43770  97.5976  61.8756 0013509 355.4061   4.7035 14.97534864221769
ITASAT 1                
1 43786U 18099AE  22360.75502591  .00002415  00000+0  21147-3 0  9991
2 43786  97.6015  62.9991 0014396 348.7772  11.3127 14.97540610221822
JY1SAT (JO-97)          
1 43803U 18099AX  22360.42825622  .00002850  00000+0  24404-3 0  9990
2 43803  97.5970  62.5188 0014240 346.5124  13.5716 14.98283693221802
UWE-4                   
1 43880U 18111E   22360.68559212  .00004827  00000+0  39758-3 0  9991
2 43880  97.6580 263.6311 0013276  46.8297 313.4033 14.99474391218499
NEXUS (FO-99)           
1 43937U 19003F   22361.03278299  .00023221  00000+0  64804-3 0  9997
2 43937  97.1105  27.3382 0017634 176.6175 183.5192 15.36578408219480
PSAT2 (NO-104)          
1 44354U 19036R   22361.10564474  .00230866  90028-5  90760-3 0  9998
2 44354  28.5170 255.9652 0122018  25.5114 335.1456 15.74761611194652
JAISAT-1                
1 44419U 19038F   22360.86345244  .00013676  00000+0  61356-3 0  9998
2 44419  97.6601 333.2595 0017306 178.6289 181.4997 15.21188254192267
DUCHIFAT-3              
1 44854U 19089C   22361.19902352  .00005319  00000+0  39595-3 0  9998
2 44854  36.9656  36.4416 0007874 345.1822  68.4160 15.02735427166922
CAS-6 (TIANQIN 1)       
1 44881U 19093C   22361.22664359  .00000821  00000+0  11010-3 0  9994
2 44881  97.8794  77.5430 0013550 280.3109  79.6577 14.81993781163321
RS-44 & BREEZE-KM R/B   
1 44909U 19096E   22360.59675228  .00000035  00000+0  10081-3 0  9998
2 44909  82.5216 102.6336 0216809 230.2833 127.8982 12.79717278140081
ORBITAL FACTORY 2 (OF-2)
1 45113U 19071C   22360.89141914  .00080365  00000+0  91658-3 0  9995
2 45113  51.6314 183.7338 0010240 173.9496 186.1624 15.61458854163257
HUSKYSAT-1 (HO-107)     
1 45119U 19071J   22360.80050153  .00056865  00000+0  74840-3 0  9998
2 45119  51.6323 186.8415 0010179 166.8969 193.2289 15.57841301163197
BY70-2                  
1 45857U 20042B   22361.24168022  .00010731  00000+0  13296-2 0  9990
2 45857  97.9420  76.4638 0009790 203.9937 156.0712 14.82839014133991
SALSAT                  
1 46495U 20068K   22360.78130156  .00003816  00000+0  26864-3 0  9994
2 46495  97.7527 302.4597 0016004 351.8881   8.2084 15.05567166123114
BY70-3                  
1 46839U 20079N   22361.06694932  .00054203  00000+0  80668-3 0  9995
2 46839  97.1773  71.7925 0003957   3.5091  81.2386 15.54961584120020
RADFXSAT-2 (AO-109)     
1 47311U 21002C   22360.52211567  .00011740  00000+0  41024-3 0  9999
2 47311  60.6852 357.3419 0039154  88.4427 272.1148 15.29294288107803
UVSQ-SAT                
1 47438U 21006AB  22360.64372108  .00009828  00000+0  48023-3 0  9995
2 47438  97.4122  55.7410 0010439 334.3486  25.7229 15.18398876106418
DIY-1 (ARDUIQUBE)       
1 47963U 21022AH  22360.71097775  .00030969  00000+0  13543-2 0  9996
2 47963  97.5170 260.5882 0013054 177.8386 182.2909 15.21939166 96092
XW-3 (CAS-9)            
1 50466U 21131B   22361.18711889  .00000263  00000+0  10036-3 0  9999
2 50466  98.5671  78.2155 0003502 297.2865  62.7965 14.38603568 52620
TEVEL-3                 
1 50988U 22002E   22361.06364566  .00010662  00000+0  53218-3 0  9992
2 50988  97.4600  64.9529 0010320 112.0755 332.6556 15.17634367 52594
TEVEL-8                 
1 50989U 22002F   22361.13156919  .00010607  00000+0  53030-3 0  9993
2 50989  97.4618  65.0593 0010267 111.3181 279.1087 15.17578927 52607
TEVEL-5                 
1 50998U 22002Q   22361.08614664  .00011146  00000+0  54700-3 0  9997
2 50998  97.4593  65.1937 0011769 108.3218 339.2004 15.18201169 52617
TEVEL-6                 
1 50999U 22002R   22361.08541853  .00011079  00000+0  54363-3 0  9997
2 50999  97.4589  65.1898 0011874 109.1426 339.8943 15.18207443 52615
TEVEL-1                 
1 51013U 22002AF  22361.06951942  .00010645  00000+0  53180-3 0  9991
2 51013  97.4595  64.9224 0010337 112.5623 333.3320 15.17604223 52591
TEVEL-7                 
1 51062U 22002CG  22361.13364269  .00010645  00000+0  53219-3 0  9996
2 51062  97.4609  65.0400 0010249 110.4603 280.0800 15.17579664 52609
TEVEL-4                 
1 51063U 22002CH  22361.13569297  .00010648  00000+0  53262-3 0  9996
2 51063  97.4613  65.0365 0010337 111.2835 279.4766 15.17559731 52605
TEVEL-2                 
1 51069U 22002CP  22361.06607447  .00010684  00000+0  53336-3 0  9996
2 51069  97.4590  64.9327 0010203 111.7415 336.3516 15.17630770 52599
GREENCUBE               
1 53106U 22080B   22354.08419093 -.00000003  00000+0  00000+0 0  9999
2 53106  70.1702  21.9397 0008914 226.9685 182.2049  6.42557326 10248
YUZGU 9 (RS3S)          
1 53308U 98067TT  22360.72552947  .00224471  00000+0  13534-2 0  9990
2 53308  51.6338  91.7599 0005657 307.3973  52.6512 15.76442485 24735
YUZGU 7 (RS1S)          
1 53309U 98067TU  22361.26189238  .00247230  00000+0  13964-2 0  9995
2 53309  51.6318  88.5795 0006271 313.2857  46.7620 15.77844202 24778
YUZGU 11 (RS5S)         
1 53310U 98067TV  22361.23060193  .00231367  00000+0  13713-2 0  9998
2 53310  51.6346  89.1320 0005774 309.1061  50.9425 15.76809389 24798
YUZGU 12 (RS6S)         
1 53311U 98067TW  22361.22540371  .00263229  00000+0  14030-2 0  9994
2 53311  51.6306  88.3299 0005959 317.2104  42.8432 15.79092327 24825
TSIOLKOVSKY-RYAZAN 1 (*)
1 53312U 98067TX  22360.95319858  .00234593  00000+0  13619-2 0  9992
2 53312  51.6314  90.2782 0006576 310.8301  49.2129 15.77261674 24711
TSIOLKOVSKY-RYAZAN 2 (*)
1 53313U 98067TY  22360.88343381  .00239440  00000+0  13844-2 0  9999
2 53313  51.6333  90.5645 0006278 313.2708  46.7768 15.77341604 24758
YUZGU 10 (RS4S)         
1 53321U 98067TZ  22361.21716493  .00235726  00000+0  13783-2 0  9999
2 53321  51.6343  89.0408 0005833 311.4657  48.5842 15.77102826 24807
RS29S (SXC3-2110 CYCLO*)
1 53373U 22096D   22361.06436534  .00015302  00000+0  56222-3 0  9995
2 53373  97.4287 261.6988 0003311  66.8405  49.6481 15.28002179 21311
RS32S (SXC3-212 MONITO*)
1 53374U 22096E   22361.05759356  .00014293  00000+0  52550-3 0  9993
2 53374  97.4279 261.7033 0003171  56.4621  67.9273 15.27995829 21318
RS34S (SXC3-218 KUZBAS*)
1 53375U 22096F   22361.07494214  .00011660  00000+0  43579-3 0  9991
2 53375  97.4285 261.6835 0003168  60.6712  55.1997 15.27504994 21310
RS23S (SXC3-21 UTMN)    
1 53376U 22096G   22361.07043309  .00012949  00000+0  48187-3 0  9998
2 53376  97.4287 261.6892 0003102  60.2646  55.3503 15.27623017 21319
RS28S (SXC3-214 MIET-A*)
1 53377U 22096H   22361.07086668  .00012257  00000+0  45772-3 0  9993
2 53377  97.4285 261.6896 0003231  58.8229  55.5172 15.27520036 21316
RS26S (KAI-1)           
1 53378U 22096J   22361.21853163  .00010769  00000+0  40570-3 0  9999
2 53378  97.4289 261.8151 0002996  52.8765 106.0369 15.27262185 21333
RS19S (SXC3-219 ISOI)   
1 53381U 22096M   22361.09157106  .00012565  00000+0  46166-3 0  9996
2 53381  97.4282 261.8084 0003517 345.7019 121.5521 15.28049275 21326
RS21S (CUBESX-HSE-2)    
1 53383U 22096P   22361.22795632  .00012700  00000+0  46554-3 0  9997
2 53383  97.4285 261.9572 0003707 343.7141 175.8126 15.28122524 21343
RS30S (SXC3-217 SIREN)  
1 53384U 22096Q   22361.23393966  .00011839  00000+0  43727-3 0  9994
2 53384  97.4284 261.9470 0003577 340.9334 177.6185 15.27890974 21343
RS20S (GEOSCAN-EDELVEIS)
1 53385U 22096R   22361.24213221  .00016156  00000+0  57528-3 0  9992
2 53385  97.4281 262.0680 0003951 341.0838 136.3601 15.29018692 21383
RS33S (SXC3-215 VIZARD) 
1 53386U 22096S   22361.20151686  .00018883  00000+0  65296-3 0  9995
2 53386  97.4283 262.1374 0004521 337.7677 181.0846 15.29941158 21373
CAS-5A (FO-118)         
1 54684U 22167C   22361.11187302  .00007575  00000+0  48214-3 0  9997
2 54684  97.5391 135.7972 0014247 202.1011 273.6401 15.08981505  2683
CAS-10                  
1 54816U 21035C   22361.33185932  .00075427  00000+0  83721-3 0  9991
2 54816  41.4770 123.0369 0007797 251.9938 108.0062 15.61910745  1322
